{"type": "FeatureCollection", "features": [ {"type": "Feature", "properties": {"norad_id": 28659, "name": "DIRECTV 8", "group": "intelsat", "lat": -0.03705826710463914, "lon": -45.665277206861134, "alt_km": 35775.673078945794, "timestamp": "2025-12-23T22:42:32.645601+00:00", "meta": {"OBJECT_NAME": "DIRECTV 8", "OBJECT_ID": "2005-019A", "EPOCH": "2025-12-23T05:51:01.780704", "MEAN_MOTION": 1.00271584, "ECCENTRICITY": 0.00029271, "INCLINATION": 0.0184, "RA_OF_ASC_NODE": 19.1553, "ARG_OF_PERICENTER": 262.5593, "MEAN_ANOMALY": 139.0377, "EPHEMERIS_TYPE": 0, "CLASSIFICATION_TYPE": "U", "NORAD_CAT_ID": 28659, "ELEMENT_SET_NO": 999, "REV_AT_EPOCH": 7530, "BSTAR": 0, "MEAN_MOTION_DOT": 2.2e-07, "MEAN_MOTION_DDOT": 0}, "tle": {"line1": "1 28659U 05019A   25357.24377061  .00000022  00000+0  00000+0 0  9999", "line2": "2 28659   0.0184  19.1553 0002927 262.5593 139.0377  1.00271584 75304"}}, "geometry": {"type": "Point", "coordinates": [-45.665277206861134, -0.03705826710463914]}}, {"type": "Feature", "properties": {"norad_id": 28702, "name": "GALAXY 28 (G-28)", "group": "intelsat", "lat": -2.8421490341384352, "lon": -15.310723635698963, "alt_km": 35782.48862178302, "timestamp": "2025-12-23T22:42:32.645613+00:00", "meta": {"OBJECT_NAME": "GALAXY 28 (G-28)", "OBJECT_ID": "2005-022A", "EPOCH": "2025-12-20T00:49:30.482112", "MEAN_MOTION": 1.00271047, "ECCENTRICITY": 0.00029384, "INCLINATION": 2.8382, "RA_OF_ASC_NODE": 81.1982, "ARG_OF_PERICENTER": 194.0723, "MEAN_ANOMALY": 97.2981, "EPHEMERIS_TYPE": 0, "CLASSIFICATION_TYPE": "U", "NORAD_CAT_ID": 28702, "ELEMENT_SET_NO": 999, "REV_AT_EPOCH": 5017, "BSTAR": 0, "MEAN_MOTION_DOT": -1.65e-06, "MEAN_MOTION_DDOT": 0}, "tle": {"line1": "1 28702U 05022A   25354.03438058 -.00000165  00000+0  00000+0 0  9999", "line2": "2 28702   2.8382  81.1982 0002938 194.0723  97.2981  1.00271047 50172"}}, "geometry": {"type": "Point", "coordinates": [-15.310723635698963, -2.8421490341384352]}}, {"type": "Feature", "properties": {"norad_id": 29236, "name": "GALAXY 16 (G-16)", "group": "intelsat", "lat": 0.0017952887505094267, "lon": -25.623758257638357, "alt_km": 35781.18478753984, "timestamp": "2025-12-23T22:42:32.645625+00:00", "meta": {"OBJECT_NAME": "GALAXY 16 (G-16)", "OBJECT_ID": "2006-023A", "EPOCH": "2025-12-23T04:06:08.288928", "MEAN_MOTION": 1.00272873, "ECCENTRICITY": 0.00024969, "INCLINATION": 0.0456, "RA_OF_ASC_NODE": 194.1649, "ARG_OF_PERICENTER": 75.9971, "MEAN_ANOMALY": 144.3261, "EPHEMERIS_TYPE": 0, "CLASSIFICATION_TYPE": "U", "NORAD_CAT_ID": 29236, "ELEMENT_SET_NO": 999, "REV_AT_EPOCH": 7120, "BSTAR": 0, "MEAN_MOTION_DOT": -1.06e-06, "MEAN_MOTION_DDOT": 0}, "tle": {"line1": "1 29236U 06023A   25357.17092927 -.00000106  00000+0  00000+0 0  9998", "line2": "2 29236   0.0456 194.1649 0002496  75.9971 144.3261  1.00272873 71203"}}, "geometry": {"type": "Point", "coordinates": [-25.623758257638357, 0.0017952887505094267]}}, {"type": "Feature", "properties": {"norad_id": 29494, "name": "DIRECTV 9S", "group": "intelsat", "lat": -1.8532537762491958, "lon": -27.82782139689033, "alt_km": 35779.22955661882, "timestamp": "2025-12-23T22:42:32.645637+00:00", "meta": {"OBJECT_NAME": "DIRECTV 9S", "OBJECT_ID": "2006-043A", "EPOCH": "2025-12-23T04:05:30.848352", "MEAN_MOTION": 1.0027214, "ECCENTRICITY": 0.00028908, "INCLINATION": 1.9654, "RA_OF_ASC_NODE": 83.1018, "ARG_OF_PERICENTER": 193.9974, "MEAN_ANOMALY": 135.0377, "EPHEMERIS_TYPE": 0, "CLASSIFICATION_TYPE": "U", "NORAD_CAT_ID": 29494, "ELEMENT_SET_NO": 999, "REV_AT_EPOCH": 4961, "BSTAR": 0, "MEAN_MOTION_DOT": -9.3e-07, "MEAN_MOTION_DDOT": 0}, "tle": {"line1": "1 29494U 06043A   25357.17049593 -.00000093  00000+0  00000+0 0  9992", "line2": "2 29494   1.9654  83.1018 0002890 193.9974 135.0377  1.00272140 49610"}}, "geometry": {"type": "Point", "coordinates": [-27.82782139689033, -1.8532537762491958]}}, {"type": "Feature", "properties": {"norad_id": 31307, "name": "GALAXY 17 (G-17)", "group": "intelsat", "lat": -2.531688447980417, "lon": -11.572358340837116, "alt_km": 35788.68144075304, "timestamp": "2025-12-23T22:42:32.645649+00:00", "meta": {"OBJECT_NAME": "GALAXY 17 (G-17)", "OBJECT_ID": "2007-016B", "EPOCH": "2025-12-23T04:10:07.906368", "MEAN_MOTION": 1.00269631, "ECCENTRICITY": 0.0005341, "INCLINATION": 2.5245, "RA_OF_ASC_NODE": 82.1678, "ARG_OF_PERICENTER": 171.9507, "MEAN_ANOMALY": 175.3964, "EPHEMERIS_TYPE": 0, "CLASSIFICATION_TYPE": "U", "NORAD_CAT_ID": 31307, "ELEMENT_SET_NO": 999, "REV_AT_EPOCH": 6803, "BSTAR": 0, "MEAN_MOTION_DOT": -1.86e-06, "MEAN_MOTION_DDOT": 0}, "tle": {"line1": "1 31307U 07016B   25357.17370262 -.00000186  00000+0  00000+0 0  9992", "line2": "2 31307   2.5245  82.1678 0005341 171.9507 175.3964  1.00269631 68039"}}, "geometry": {"type": "Point", "coordinates": [-11.572358340837116, -2.531688447980417]}}, {"type": "Feature", "properties": {"norad_id": 31862, "name": "DIRECTV 10", "group": "intelsat", "lat": -0.007235996457434766, "lon": -29.422440472077536, "alt_km": 35785.679031812986, "timestamp": "2025-12-23T22:42:32.645661+00:00", "meta": {"OBJECT_NAME": "DIRECTV 10", "OBJECT_ID": "2007-032A", "EPOCH": "2025-12-22T14:23:17.397024", "MEAN_MOTION": 1.00274167, "ECCENTRICITY": 2.112e-05, "INCLINATION": 0.0071, "RA_OF_ASC_NODE": 104.9786, "ARG_OF_PERICENTER": 118.9337, "MEAN_ANOMALY": 340.5167, "EPHEMERIS_TYPE": 0, "CLASSIFICATION_TYPE": "U", "NORAD_CAT_ID": 31862, "ELEMENT_SET_NO": 999, "REV_AT_EPOCH": 4382, "BSTAR": 0, "MEAN_MOTION_DOT": -8.2e-07, "MEAN_MOTION_DDOT": 0}, "tle": {"line1": "1 31862U 07032A   25356.59950691 -.00000082  00000+0  00000+0 0  9996", "line2": "2 31862   0.0071 104.9786 0000211 118.9337 340.5167  1.00274167 43822"}}, "geometry": {"type": "Point", "coordinates": [-29.422440472077536, -0.007235996457434766]}}, {"type": "Feature", "properties": {"norad_id": 32253, "name": "INTELSAT 11 (IS-11)", "group": "intelsat", "lat": 0.5777785095059921, "lon": -110.19558681593975, "alt_km": 36094.68800096937, "timestamp": "2025-12-23T22:42:32.645672+00:00", "meta": {"OBJECT_NAME": "INTELSAT 11 (IS-11)", "OBJECT_ID": "2007-044B", "EPOCH": "2025-12-23T03:42:55.513152", "MEAN_MOTION": 0.99052878, "ECCENTRICITY": 0.00085567, "INCLINATION": 3.1056, "RA_OF_ASC_NODE": 80.8614, "ARG_OF_PERICENTER": 170.1579, "MEAN_ANOMALY": 76.5623, "EPHEMERIS_TYPE": 0, "CLASSIFICATION_TYPE": "U", "NORAD_CAT_ID": 32253, "ELEMENT_SET_NO": 999, "REV_AT_EPOCH": 6670, "BSTAR": 0, "MEAN_MOTION_DOT": -1.38e-06, "MEAN_MOTION_DDOT": 0}, "tle": {"line1": "1 32253U 07044B   25357.15480918 -.00000138  00000+0  00000+0 0  9999", "line2": "2 32253   3.1056  80.8614 0008556 170.1579  76.5623  0.99052878 66709"}}, "geometry": {"type": "Point", "coordinates": [-110.19558681593975, 0.5777785095059921]}}, {"type": "Feature", "properties": {"norad_id": 32388, "name": "HORIZONS-2", "group": "intelsat", "lat": -2.1400639434117714, "lon": -0.37278777731361007, "alt_km": 35783.7810514873, "timestamp": "2025-12-23T22:42:32.645684+00:00", "meta": {"OBJECT_NAME": "HORIZONS-2", "OBJECT_ID": "2007-063B", "EPOCH": "2025-12-23T03:26:55.180608", "MEAN_MOTION": 1.00270554, "ECCENTRICITY": 0.00046646, "INCLINATION": 2.147, "RA_OF_ASC_NODE": 82.8487, "ARG_OF_PERICENTER": 195.5064, "MEAN_ANOMALY": 151.5248, "EPHEMERIS_TYPE": 0, "CLASSIFICATION_TYPE": "U", "NORAD_CAT_ID": 32388, "ELEMENT_SET_NO": 999, "REV_AT_EPOCH": 6604, "BSTAR": 0, "MEAN_MOTION_DOT": -2.33e-06, "MEAN_MOTION_DDOT": 0}, "tle": {"line1": "1 32388U 07063B   25357.14369422 -.00000233  00000+0  00000+0 0  9990", "line2": "2 32388   2.1470  82.8487 0004664 195.5064 151.5248  1.00270554 66043"}}, "geometry": {"type": "Point", "coordinates": [-0.37278777731361007, -2.1400639434117714]}}, {"type": "Feature", "properties": {"norad_id": 32729, "name": "DIRECTV 11", "group": "intelsat", "lat": 0.004322150979572596, "lon": -25.866598462698132, "alt_km": 35790.79786463557, "timestamp": "2025-12-23T22:42:32.645696+00:00", "meta": {"OBJECT_NAME": "DIRECTV 11", "OBJECT_ID": "2008-013A", "EPOCH": "2025-12-21T16:09:00.789984", "MEAN_MOTION": 1.00267418, "ECCENTRICITY": 8.567e-05, "INCLINATION": 0.0458, "RA_OF_ASC_NODE": 200.3144, "ARG_OF_PERICENTER": 330.5483, "MEAN_ANOMALY": 62.6867, "EPHEMERIS_TYPE": 0, "CLASSIFICATION_TYPE": "U", "NORAD_CAT_ID": 32729, "ELEMENT_SET_NO": 999, "REV_AT_EPOCH": 4381, "BSTAR": 0, "MEAN_MOTION_DOT": -1.03e-06, "MEAN_MOTION_DDOT": 0}, "tle": {"line1": "1 32729U 08013A   25355.67292581 -.00000103  00000+0  00000+0 0  9998", "line2": "2 32729   0.0458 200.3144 0000856 330.5483  62.6867  1.00267418 43811"}}, "geometry": {"type": "Point", "coordinates": [-25.866598462698132, 0.004322150979572596]}}, {"type": "Feature", "properties": {"norad_id": 32951, "name": "GALAXY 18 (G-18)", "group": "intelsat", "lat": -0.00898427206717566, "lon": -49.63130691439043, "alt_km": 35775.7076658578, "timestamp": "2025-12-23T22:42:32.645708+00:00", "meta": {"OBJECT_NAME": "GALAXY 18 (G-18)", "OBJECT_ID": "2008-024A", "EPOCH": "2025-12-23T05:48:55.381824", "MEAN_MOTION": 1.00271974, "ECCENTRICITY": 0.00029187, "INCLINATION": 0.0164, "RA_OF_ASC_NODE": 296.5123, "ARG_OF_PERICENTER": 340.1178, "MEAN_ANOMALY": 139.6266, "EPHEMERIS_TYPE": 0, "CLASSIFICATION_TYPE": "U", "NORAD_CAT_ID": 32951, "ELEMENT_SET_NO": 999, "REV_AT_EPOCH": 4408, "BSTAR": 0, "MEAN_MOTION_DOT": 4.6e-07, "MEAN_MOTION_DDOT": 0}, "tle": {"line1": "1 32951U 08024A   25357.24230766  .00000046  00000+0  00000+0 0  9994", "line2": "2 32951   0.0164 296.5123 0002918 340.1178 139.6266  1.00271974 44085"}}, "geometry": {"type": "Point", "coordinates": [-49.63130691439043, -0.00898427206717566]}}]}